NORAD_CAT_ID,OBJECT_NAME,OBJECT_TYPE,EPOCH,MEAN_MOTION,ECCENTRICITY,INCLINATION,RA_OF_ASC_NODE,ARG_OF_PERICENTER,MEAN_ANOMALY,BSTAR,MEAN_MOTION_DOT,MEAN_MOTION_DDOT,TLE_LINE0,TLE_LINE1,TLE_LINE2,SEMIMAJOR_AXIS,PERIOD,APOGEE,PERIGEE,DECAYED
52633.0,STARLINK-3994,PAYLOAD,2022-07-08 03:37:04,15.59606906,9.65e-05,53.2136,171.1774,327.7292,32.3663,-0.0056636,-0.00435692,0.0,0 STARLINK-3994,1 52633U 22052AM  22189.15075108 -.00435692  00000-0 -56636-2 0  9998,2 52633  53.2136 171.1774 0000965 327.7292  32.3663 15.59606906  8920,6766.931,92.331,389.449,388.143,0.0
52633.0,STARLINK-3994,PAYLOAD,2022-07-08 14:00:01,15.57564007,0.0001159,53.2174,169.1266,88.6946,178.8824,-0.01561,-0.01065484,0.0,0 STARLINK-3994,1 52633U 22052AM  22189.58334491 -.01065484  00000-0 -15610-1 0  9993,2 52633  53.2174 169.1266 0001159  88.6946 178.8824 15.57564007  1303,6772.847,92.452,395.497,393.927,0.0
52633.0,STARLINK-3994,PAYLOAD,2022-07-08 20:00:01,15.56991946,0.0001215,53.2174,167.9201,88.9638,141.0187,-0.01588,-0.01061227,0.0,0 STARLINK-3994,1 52633U 22052AM  22189.83335648 -.01061227  00000-0 -15880-1 0  9996,2 52633  53.2174 167.9201 0001215  88.9638 141.0187 15.56991946  9039,6774.505,92.486,397.194,395.547,0.0
52633.0,STARLINK-3994,PAYLOAD,2022-07-08 22:00:01,15.56800777,0.0001069,53.2177,167.5186,91.1093,246.2055,-0.015951,-0.01058558,0.0,0 STARLINK-3994,1 52633U 22052AM  22189.91668981 -.01058558  00000-0 -15951-1 0  9996,2 52633  53.2177 167.5186 0001069  91.1093 246.2055 15.56800777  1303,6775.06,92.497,397.649,396.201,0.0
52633.0,STARLINK-3994,PAYLOAD,2022-07-09 14:00:01,15.55284005,0.0001147,53.2173,164.3117,85.1575,28.6958,-0.0169379999999999,-0.01061885,0.0,0 STARLINK-3994,1 52633U 22052AM  22190.58334491 -.01061885  00000-0 -16938-1 0  9990,2 52633  53.2173 164.3117 0001147  85.1575  28.6958 15.55284005  1306,6779.464,92.588,402.107,400.552,0.0
52633.0,STARLINK-3994,PAYLOAD,2022-07-09 20:00:01,15.54712974,0.000115,53.2173,163.1094,66.26,7.8802,-0.017276,-0.01060549,0.0,0 STARLINK-3994,1 52633U 22052AM  22190.83334491 -.01060549  00000-0 -17276-1 0  9990,2 52633  53.2173 163.1094 0001150  66.2600   7.8802 15.54712974  1307,6781.124,92.622,403.769,402.209,0.0
52633.0,STARLINK-3994,PAYLOAD,2022-07-10 04:00:00,15.53953371,0.0001301,53.2173,161.5113,69.0324,71.3553,-0.017743,-0.01059328,0.0,0 STARLINK-3994,1 52633U 22052AM  22191.16667824 -.01059328  00000-0 -17743-1 0  9998,2 52633  53.2173 161.5113 0001301  69.0324  71.3553 15.53953371  9240,6783.334,92.667,406.081,404.316,0.0
52633.0,STARLINK-3994,PAYLOAD,2022-07-10 14:00:01,15.53006563,0.0001089,53.2174,159.5134,96.6632,215.2516,-0.018445,-0.01063278,0.0,0 STARLINK-3994,1 52633U 22052AM  22191.58334491 -.01063278  00000-0 -18445-1 0  9994,2 52633  53.2174 159.5134 0001089  96.6632 215.2516 15.53006563  1301,6786.090999999999,92.723,408.695,407.216,0.0
52633.0,STARLINK-3994,PAYLOAD,2022-07-10 22:00:00,15.52243912,0.0001084,53.2175,157.9168,74.3261,301.7853,-0.018845,-0.01057221,0.0,0 STARLINK-3994,1 52633U 22052AM  22191.91667824 -.01057221  00000-0 -18845-1 0  9995,2 52633  53.2175 157.9168 0001084  74.3261 301.7853 15.52243912  1302,6788.313,92.769,410.914,409.442,0.0
52633.0,STARLINK-3994,PAYLOAD,2022-07-11 14:00:01,15.50623612,0.000121,53.2174,154.7298,79.3838,62.3989,-0.014403,-0.00772819,0.0,0 STARLINK-3994,1 52633U 22052AM  22192.58334491 -.00772819  00000-0 -14403-1 0  9992,2 52633  53.2174 154.7298 0001210  79.3838  62.3989 15.50623612  1303,6793.041,92.866,415.728,414.084,0.0
52633.0,STARLINK-3994,PAYLOAD,2022-07-11 22:00:00,15.49951546,0.0001271,53.2176,153.1363,79.7851,123.4731,-0.00187,-0.00105415,0.0,0 STARLINK-3994,1 52633U 22052AM  22192.91667824 -.00105415  00000-0 -18700-2 0  9995,2 52633  53.2176 153.1363 0001271  79.7851 123.4731 15.49951546  1309,6795.005,92.906,417.733,416.006,0.0
52633.0,STARLINK-3994,PAYLOAD,2022-07-12 04:00:00,15.49898914,0.0001446,53.2167,151.9364,80.9862,77.9084,0.00018564,0.00010103,0.0,0 STARLINK-3994,1 52633U 22052AM  22193.16667824  .00010103  00000-0  18564-3 0  9999,2 52633  53.2167 151.9364 0001446  80.9862  77.9084 15.49898914  9554,6795.159000000002,92.909,418.006,416.041,0.0
52633.0,STARLINK-3994,PAYLOAD,2022-07-12 14:00:01,15.49921486,0.0001341999999999,53.216,149.9402,86.3084,238.7446,-0.00019361,-0.00011438,0.0,0 STARLINK-3994,1 52633U 22052AM  22193.58334491 -.00011438  00000-0 -19361-3 0  9996,2 52633  53.2160 149.9402 0001342  86.3084 238.7446 15.49921486  1303,6795.093000000003,92.908,417.869,416.046,0.0
52633.0,STARLINK-3994,PAYLOAD,2022-07-12 22:00:00,15.49931519,0.0001346,53.2163,148.3469,92.8332,293.1698,0.00028054,0.00015528,0.0,0 STARLINK-3994,1 52633U 22052AM  22193.91667824  .00015528  00000-0  28054-3 0  9993,2 52633  53.2163 148.3469 0001346  92.8332 293.1698 15.49931519  1306,6795.063,92.907,417.843,416.014,0.0
52633.0,STARLINK-3994,PAYLOAD,2022-07-13 12:00:02,15.49962889,0.0001165,53.2162,145.5625,85.0172,317.7532,-0.002711,-0.00151787,0.0,0 STARLINK-3994,1 52633U 22052AM  22194.50002315 -.00151787  00000-0 -27110-2 0  9998,2 52633  53.2162 145.5625 0001165  85.0172 317.7532 15.49962889  9765,6794.972,92.905,417.628,416.045,0.0
52633.0,STARLINK-3994,PAYLOAD,2022-07-13 14:00:01,15.49968371,0.000122,53.2169,145.1653,89.684,58.2614,-0.0040579,-0.00224932,0.0,0 STARLINK-3994,1 52633U 22052AM  22194.58334491 -.00224932  00000-0 -40579-2 0  9996,2 52633  53.2169 145.1653 0001220  89.6840  58.2614 15.49968371  1305,6794.956,92.905,417.649,415.992,0.0
52633.0,STARLINK-3994,PAYLOAD,2022-07-13 20:00:01,15.49884721,0.0001147,53.2169,143.9736,99.0994,4.5515,-0.0080384,-0.00432358,0.0,0 STARLINK-3994,1 52633U 22052AM  22194.83334491 -.00432358  00000-0 -80384-2 0  9995,2 52633  53.2169 143.9736 0001147  99.0994   4.5515 15.49884721  9810,6795.2,92.91,417.844,416.286,0.0
52633.0,STARLINK-3994,PAYLOAD,2022-07-13 22:00:00,15.49838328,0.0001242,53.217,143.5774,104.2516,104.6115,-0.009688,-0.00514767,0.0,0 STARLINK-3994,1 52633U 22052AM  22194.91667824 -.00514767  00000-0 -96880-2 0  9996,2 52633  53.2170 143.5774 0001242 104.2516 104.6115 15.49838328  1301,6795.3359999999975,92.913,418.045,416.357,0.0
52633.0,STARLINK-3994,PAYLOAD,2022-07-14 04:00:00,15.49707208,0.0001256,53.2174,142.3897,79.7711,84.5929,-0.020803,-0.01064729,0.0,0 STARLINK-3994,1 52633U 22052AM  22195.16667824 -.01064729  00000-0 -20803-1 0  9994,2 52633  53.2174 142.3897 0001256  79.7711  84.5929 15.49707208  9866,6795.719,92.921,418.437,416.73,0.0
52633.0,STARLINK-3994,PAYLOAD,2022-07-14 14:00:01,15.48753792,0.000109,53.2175,140.4043,99.2906,230.2177,-0.021442,-0.01061253,0.0,0 STARLINK-3994,1 52633U 22052AM  22195.58334491 -.01061253  00000-0 -21442-1 0  9990,2 52633  53.2175 140.4043 0001090  99.2906 230.2177 15.48753792  1302,6798.5080000000025,92.978,421.114,419.632,0.0
52633.0,STARLINK-3994,PAYLOAD,2022-07-14 22:00:00,15.47993233,0.0001083,53.2176,138.8187,87.6577,300.9365,-0.021965,-0.01058647,0.0,0 STARLINK-3994,1 52633U 22052AM  22195.91667824 -.01058647  00000-0 -21965-1 0  9999,2 52633  53.2176 138.8187 0001083  87.6577 300.9365 15.47993233  1309,6800.734,93.024,423.336,421.86300000000006,0.0
52633.0,STARLINK-3994,PAYLOAD,2022-07-15 04:00:00,15.47423919,0.0001133,53.2176,137.6321,98.3054,244.0032,-0.022426,-0.01059435,0.0,0 STARLINK-3994,1 52633U 22052AM  22196.16667824 -.01059435  00000-0 -22426-1 0  9996,2 52633  53.2176 137.6321 0001133  98.3054 244.0032 15.47423919 10017,6802.401999999999,93.058,425.038,423.496,0.0
52633.0,STARLINK-3994,PAYLOAD,2022-07-15 14:00:01,15.46472986,0.0001229,53.2177,135.6529,90.0423,53.9861,-0.02311,-0.01056457,0.0,0 STARLINK-3994,1 52633U 22052AM  22196.58334491 -.01056457  00000-0 -23110-1 0  9995,2 52633  53.2177 135.6529 0001229  90.0423  53.9861 15.46472986  1307,6805.19,93.115,427.892,426.219,0.0
52633.0,STARLINK-3994,PAYLOAD,2022-07-15 20:00:01,15.45902953,0.0001189,53.2177,134.4672,91.4301,4.9447,-0.023541,-0.01055203,0.0,0 STARLINK-3994,1 52633U 22052AM  22196.83334491 -.01055203  00000-0 -23541-1 0  9999,2 52633  53.2177 134.4672 0001189  91.4301   4.9447 15.45902953 10125,6806.863,93.149,429.538,427.919,0.0
52633.0,STARLINK-3994,PAYLOAD,2022-07-15 22:00:00,15.45712932,0.0001326,53.2178,134.0731,80.5469,119.8289,-0.023697,-0.01055268,0.0,0 STARLINK-3994,1 52633U 22052AM  22196.91667824 -.01055268  00000-0 -23697-1 0  9990,2 52633  53.2178 134.0731 0001326  80.5469 119.8289 15.45712932  1301,6807.420999999999,93.161,430.189,428.383,0.0
52633.0,STARLINK-3994,PAYLOAD,2022-07-16 12:00:00,15.4438501,0.0001286999999999,53.2175,131.3122,85.5993,121.1892,-0.024875,-0.01057962,0.0,0 STARLINK-3994,1 52633U 22052AM  22197.50001157 -.01057962  00000-0 -24875-1 0  9999,2 52633  53.2175 131.3122 0001287  85.5993 121.1892 15.44385010 10224,6811.323,93.241,434.064,432.311,0.0
52633.0,STARLINK-3994,PAYLOAD,2022-07-16 14:00:01,15.44195366,0.0001125,53.2176,130.9179,93.1224,217.2109,-0.025031,-0.01057691,0.0,0 STARLINK-3994,1 52633U 22052AM  22197.58334491 -.01057691  00000-0 -25031-1 0  9991,2 52633  53.2176 130.9179 0001125  93.1224 217.2109 15.44195366  1305,6811.88,93.252,434.512,432.979,0.0
52633.0,STARLINK-3994,PAYLOAD,2022-07-16 22:00:00,15.43436406,0.0001092,53.2178,129.3437,79.142,284.8002,-0.025696,-0.01057997,0.0,0 STARLINK-3994,1 52633U 22052AM  22197.91667824 -.01057997  00000-0 -25696-1 0  9993,2 52633  53.2178 129.3437 0001092  79.1420 284.8002 15.43436406  1305,6814.113,93.298,436.722,435.234,0.0
52633.0,STARLINK-3994,PAYLOAD,2022-07-17 04:00:01,15.42866258,0.0001182,53.2177,128.1651,79.5142,234.1001,-0.026171,-0.01071839,0.0,0 STARLINK-3994,1 52633U 22052AM  22198.16668981 -.01071839  00000-0 -26171-1 0  9996,2 52633  53.2177 128.1651 0001182  79.5142 234.1001 15.42866258 10324,6815.792,93.333,438.463,436.851,0.0
